{
  "type" : "FeatureCollection",
  "features" : [{"type":"Feature","id":1,"geometry":{"type":"MultiPolygon","coordinates":[[[[48.416925726710033,28.368575867553687],[48.397193222483381,28.375026920466919],[48.391325974129721,28.360897382191421],[48.410765657744761,28.354339006369699],[48.416925726710033,28.368575867553687]]],[[[48.462594438094563,28.50865220038067],[48.459967918837535,28.510867615676261],[48.459044388814135,28.512120976958247],[48.457936154114684,28.512727867795576],[48.457355649537234,28.513572238187013],[48.456075901074442,28.514245095057927],[48.45446632030216,28.515617196627097],[48.453424051036777,28.516501146951988],[48.451379092670216,28.519575182381029],[48.449822285121613,28.521765266134253],[48.448651861763835,28.522912597351144],[48.446992842863636,28.524577018864406],[48.446630776808959,28.525101203211246],[48.446171440229392,28.526230632620127],[48.445415728701363,28.526844680041741],[48.442673775702389,28.528149257546236],[48.441131266945135,28.528965473775671],[48.440536397805189,28.529404708181694],[48.439782435825869,28.529667557291575],[48.438162236800316,28.530560591029317],[48.431255013931334,28.512645643711142],[48.430298302703363,28.510108433998237],[48.430409931935934,28.508950869139365],[48.432551969390779,28.504801334348151],[48.440825500442969,28.467864259568021],[48.415214793498095,28.445506785904939],[48.452691476858611,28.41129479655412],[48.443124078031268,28.403632592426892],[48.441320756480906,28.387203711124595],[48.441039337679101,28.377959350069457],[48.444778864445702,28.340091285963037],[48.445763642992162,28.336267046180691],[48.448080540661159,28.333997466236859],[48.466994086265167,28.323390007037453],[48.463422369234166,28.364740558389631],[48.508049579111194,28.366946734402283],[48.503349904763638,28.3539933570828],[48.510159542557162,28.34527082637533],[48.505602424059546,28.34054666633299],[48.505341338197887,28.336378097433219],[48.50149459918147,28.330326617786067],[48.514977773453452,28.325712834918853],[48.499983144482826,28.305131573414474],[48.507730643364759,28.300709828919388],[48.523625505567054,28.312981575231504],[48.521752060154355,28.315778550738251],[48.517820461615081,28.322797376994689],[48.514733233139644,28.330752925918524],[48.513954829903838,28.334051246777474],[48.513284726289157,28.338449940208736],[48.513281972192473,28.341846894348805],[48.513687353981119,28.343885404964151],[48.514593264276002,28.351434662002461],[48.520228029271664,28.367135103314393],[48.523771146885267,28.374801121140088],[48.526573431605605,28.381726306392061],[48.530406440348287,28.388393809594962],[48.533144304620329,28.392548919892072],[48.537927023787603,28.397352615346936],[48.542016941083226,28.400532195639148],[48.543151563360325,28.401904296895925],[48.543798034737932,28.403790936650392],[48.543532081898171,28.406896533688247],[48.540663364448207,28.412030029457881],[48.537013388591845,28.415217143748325],[48.530313674852543,28.416804460753347],[48.52196209703807,28.419233409866337],[48.517385083413153,28.42096858985898],[48.513308358845954,28.423382960737214],[48.510419220521186,28.425576317803593],[48.507744256406689,28.427889215712867],[48.506414879495402,28.429391519343042],[48.506104826829315,28.430098341824586],[48.504983398362079,28.431417669344196],[48.503466170773208,28.433317502166986],[48.50250240680532,28.434703619876117],[48.501978221943581,28.435703354716317],[48.501243282280512,28.436746320636232],[48.500665057550492,28.437821710091555],[48.499967944966485,28.439356436792259],[48.499719362765802,28.440334556414896],[48.499514012354318,28.44194493775829],[48.499497799494307,28.442890631840825],[48.499616687889358,28.444133545082416],[48.499562647846773,28.446041145707103],[48.49988148154749,28.446522099204348],[48.499870673620762,28.447294866929568],[48.499966256191001,28.447882885875448],[48.500034072212451,28.449144726929159],[48.500265163463254,28.449494282078941],[48.500400262818943,28.450104929775911],[48.500551574274972,28.450548055673657],[48.501048739228082,28.451034412793668],[48.501421612658525,28.451628848775872],[48.501629665539468,28.452560695868119],[48.501654996323182,28.453455728648652],[48.501536785470606,28.454257879871363],[48.501579003975003,28.454722284301134],[48.501899864529911,28.456140824695694],[48.501908308104838,28.457061188296123],[48.501998108364127,28.458127661583003],[48.502292084392892,28.458777868372724],[48.502900510633367,28.459988494350846],[48.503664597852826,28.460556880201501],[48.50380814076005,28.462397607142812],[48.503411286280077,28.46342773937797],[48.502989101237993,28.464179228381283],[48.50112304345987,28.467185185352282],[48.499197879909936,28.470174255824716],[48.498159304968908,28.472133194389162],[48.496639438888266,28.475223588247175],[48.496327021244831,28.476397263376491],[48.496196671837936,28.479926069746579],[48.497000637223351,28.480771264587258],[48.497737119837588,28.486698577812358],[48.498446390648773,28.488969934331049],[48.499622091857724,28.491353420801026],[48.500818746707004,28.493314845606903],[48.501088512107472,28.494134519223891],[48.500863707302244,28.494501124238727],[48.49987802375189,28.494725930298674],[48.497536614545467,28.495118959540928],[48.492712820647441,28.495634321298695],[48.48922897006539,28.496520745323231],[48.484776237356144,28.498108061926395],[48.476283061663338,28.501323924973281],[48.468779381990331,28.504663474052148],[48.465955195667057,28.506807382319089],[48.465522291324177,28.508106096803104],[48.464429721864448,28.507838107764847],[48.462594438094563,28.50865220038067]]]]},"properties":{"OBJECTID":1,"X":1.2050173770696078,"Y":3146488.0444604899,"AREA":137362459.60874915,"SHAPE_Length":86920.526327408996,"SHAPE_Area":138121849.1684038,"Z":null,"name":"1-بلدية محافظة الخفجي"}}]
}