{"type":"FeatureCollection","features":[{"type":"Feature","id":0,"geometry":{"type":"Polygon","coordinates":[[[48.477260941000054,28.481088161000059],[48.47728412500004,28.480818341000031],[48.477589508000051,28.480838783000024],[48.477563603000078,28.481108041000027],[48.477260941000054,28.481088161000059]]]},"properties":{"OBJECTID":0,"LifeCycleStatus":4,"LifeTime":50,"PumpStationName":"محطة رقم 3","GroundElevation":null,"Description":"محطة لتصريف مياه الامطار والمياه السطحية","PumpInstallationType":2,"TotalNumberofPumps":5,"PumpType":7,"TypeofValve1":6,"NoofValve1":5,"DiamofValve1":"0.6m","TypeofValve2":6,"NoofValve2":1,"DiamofValve2":"1.2","TypeofValve3":5,"NoofValve3":1,"DiamofValve3":"1.2","DesignCapacity":"1190\r\n","NumberofDutyPumps":4,"NumberofStandbyPumps":1,"PumpDischarge":990,"PumpHead":12,"DimoftheWell":"12*8","WellBedLevel":null,"SuctionPipeDiam":null,"DeliveryPipeDiam":1.2,"MainHeaderDiam":null,"PipeMaterial":2,"MechanicalDrawings":null,"NoofScreens":2,"TypeofScreen":"automatic","DataSource":3,"pkSwPumpstationID":0,"FkAmanaID":"","FKGOVERNORATEID":"","FKDISTRICTID":"","FKREGIONID":"","StructureStatus":3,"SituationAssessment":null,"CreationUser":"","DateCreated":-2209161600000,"DateModified":-2209161600000,"LastUser":"","MunicipalityName":"al khafji","ProjectName":null,"ProjectStatus":2,"DesignStatus":1,"ConstructionStatus":1,"ProjectCostSAR":0,"PaidInvo":0,"CompletePercentage":0,"ProjectDurationDay":0,"RemainingDurationDay":0,"SHAPE_Length":0.0011506960857963467,"SHAPE_Area":8.2440762300613886e-08}},{"type":"Feature","id":0,"geometry":{"type":"Polygon","coordinates":[[[48.491171892000068,28.417506445000072],[48.491128650000064,28.417540239000061],[48.490874072000054,28.417526302000056],[48.490893934000042,28.417301487000032],[48.491184965000059,28.417318786000067],[48.491171892000068,28.417506445000072]]]},"properties":{"OBJECTID":0,"LifeCycleStatus":3,"LifeTime":50,"PumpStationName":"محطة رقم 1","GroundElevation":null,"Description":"محطة لتصريف مياه الامطار","PumpInstallationType":2,"TotalNumberofPumps":6,"PumpType":7,"TypeofValve1":6,"NoofValve1":6,"DiamofValve1":"0.3m","TypeofValve2":6,"NoofValve2":1,"DiamofValve2":"0.8m","TypeofValve3":5,"NoofValve3":1,"DiamofValve3":"1.2","DesignCapacity":"1.688","NumberofDutyPumps":4,"NumberofStandbyPumps":2,"PumpDischarge":2,"PumpHead":20,"DimoftheWell":"12*6","WellBedLevel":null,"SuctionPipeDiam":"DN350","DeliveryPipeDiam":1.2,"MainHeaderDiam":null,"PipeMaterial":2,"MechanicalDrawings":null,"NoofScreens":2,"TypeofScreen":null,"DataSource":2,"pkSwPumpstationID":0,"FkAmanaID":"","FKGOVERNORATEID":"","FKDISTRICTID":"","FKREGIONID":"","StructureStatus":1,"SituationAssessment":1,"CreationUser":"","DateCreated":-2209161600000,"DateModified":-2209161600000,"LastUser":"","MunicipalityName":"al khafji","ProjectName":"\"محطة حي اللؤلؤة  لتصريف مياه \nالامطار والمياه الجوفية\"\r\n","ProjectStatus":1,"DesignStatus":1,"ConstructionStatus":3,"ProjectCostSAR":0,"PaidInvo":0,"CompletePercentage":0,"ProjectDurationDay":0,"RemainingDurationDay":0,"SHAPE_Length":0.0010151891959865455,"SHAPE_Area":6.5303306261017012e-08}},{"type":"Feature","id":0,"geometry":{"type":"Polygon","coordinates":[[[48.497932596000055,28.393719056000066],[48.497927167000057,28.393990439000049],[48.497875398000076,28.393988884000066],[48.497620403000042,28.393986214000051],[48.497625819000064,28.393713117000061],[48.497932596000055,28.393719056000066]]]},"properties":{"OBJECTID":0,"LifeCycleStatus":4,"LifeTime":50,"PumpStationName":"محطة رقم 5","GroundElevation":null,"Description":"محطة لتصريف مياه الامطار والمياه السطحية","PumpInstallationType":2,"TotalNumberofPumps":3,"PumpType":7,"TypeofValve1":6,"NoofValve1":3,"DiamofValve1":"0.6m\r\n","TypeofValve2":5,"NoofValve2":1,"DiamofValve2":"0.8m\r\n","TypeofValve3":1,"NoofValve3":1,"DiamofValve3":"0.8","DesignCapacity":"740","NumberofDutyPumps":2,"NumberofStandbyPumps":1,"PumpDischarge":620,"PumpHead":8,"DimoftheWell":"8*15\r\n","WellBedLevel":null,"SuctionPipeDiam":null,"DeliveryPipeDiam":0.80000000000000004,"MainHeaderDiam":null,"PipeMaterial":2,"MechanicalDrawings":null,"NoofScreens":2,"TypeofScreen":"automatic","DataSource":3,"pkSwPumpstationID":0,"FkAmanaID":"","FKGOVERNORATEID":"","FKDISTRICTID":"","FKREGIONID":"","StructureStatus":3,"SituationAssessment":null,"CreationUser":"","DateCreated":-2209161600000,"DateModified":-2209161600000,"LastUser":"","MunicipalityName":"al khafji","ProjectName":null,"ProjectStatus":2,"DesignStatus":1,"ConstructionStatus":1,"ProjectCostSAR":0,"PaidInvo":0,"CompletePercentage":0,"ProjectDurationDay":0,"RemainingDurationDay":0,"SHAPE_Length":0.0011582238061559743,"SHAPE_Area":8.3413611066966385e-08}},{"type":"Feature","id":0,"geometry":{"type":"Polygon","coordinates":[[[48.484723916000064,28.457588306000048],[48.484482701000047,28.457514779000064],[48.484565339000028,28.457301435000034],[48.484805767000068,28.457376948000046],[48.484723916000064,28.457588306000048]]]},"properties":{"OBJECTID":0,"LifeCycleStatus":3,"LifeTime":null,"PumpStationName":"محطة رقم 2","GroundElevation":null,"Description":"محطة لتصريف مياه الامطار","PumpInstallationType":null,"TotalNumberofPumps":null,"PumpType":null,"TypeofValve1":null,"NoofValve1":null,"DiamofValve1":null,"TypeofValve2":null,"NoofValve2":null,"DiamofValve2":null,"TypeofValve3":null,"NoofValve3":null,"DiamofValve3":null,"DesignCapacity":null,"NumberofDutyPumps":null,"NumberofStandbyPumps":null,"PumpDischarge":null,"PumpHead":null,"DimoftheWell":null,"WellBedLevel":null,"SuctionPipeDiam":null,"DeliveryPipeDiam":null,"MainHeaderDiam":null,"PipeMaterial":null,"MechanicalDrawings":null,"NoofScreens":null,"TypeofScreen":null,"DataSource":null,"pkSwPumpstationID":0,"FkAmanaID":"","FKGOVERNORATEID":"","FKDISTRICTID":"","FKREGIONID":"","StructureStatus":1,"SituationAssessment":null,"CreationUser":"","DateCreated":-2209161600000,"DateModified":-2209161600000,"LastUser":"","MunicipalityName":"al khafji","ProjectName":"\u003cNull\u003e","ProjectStatus":null,"DesignStatus":null,"ConstructionStatus":null,"ProjectCostSAR":0,"PaidInvo":0,"CompletePercentage":0,"ProjectDurationDay":0,"RemainingDurationDay":0,"SHAPE_Length":0.00095962306858555959,"SHAPE_Area":5.7267546495764845e-08}},{"type":"Feature","id":0,"geometry":{"type":"Polygon","coordinates":[[[48.464902369000072,28.395226040000068],[48.464972190000026,28.395159509000052],[48.465191797000045,28.395348171000023],[48.464978866000081,28.395541898000033],[48.464759032000075,28.395353659000079],[48.464902369000072,28.395226040000068]]]},"properties":{"OBJECTID":0,"LifeCycleStatus":4,"LifeTime":50,"PumpStationName":"محطة رقم 6","GroundElevation":null,"Description":"محطة لتصريف مياه الامطار والمياه السطحية","PumpInstallationType":2,"TotalNumberofPumps":3,"PumpType":7,"TypeofValve1":6,"NoofValve1":3,"DiamofValve1":"0.4m","TypeofValve2":5,"NoofValve2":1,"DiamofValve2":"0.8m","TypeofValve3":1,"NoofValve3":1,"DiamofValve3":"0.8m\r\n","DesignCapacity":"490\r\n","NumberofDutyPumps":2,"NumberofStandbyPumps":1,"PumpDischarge":410,"PumpHead":6,"DimoftheWell":"6*8\r\n","WellBedLevel":null,"SuctionPipeDiam":null,"DeliveryPipeDiam":0.80000000000000004,"MainHeaderDiam":null,"PipeMaterial":2,"MechanicalDrawings":null,"NoofScreens":2,"TypeofScreen":"automatic","DataSource":3,"pkSwPumpstationID":0,"FkAmanaID":"","FKGOVERNORATEID":"","FKDISTRICTID":"","FKREGIONID":"","StructureStatus":3,"SituationAssessment":null,"CreationUser":"","DateCreated":-2209161600000,"DateModified":-2209161600000,"LastUser":"","MunicipalityName":"al khafji","ProjectName":null,"ProjectStatus":2,"DesignStatus":1,"ConstructionStatus":1,"ProjectCostSAR":0,"PaidInvo":0,"CompletePercentage":0,"ProjectDurationDay":0,"RemainingDurationDay":0,"SHAPE_Length":0.0011551641098515193,"SHAPE_Area":8.2447672849537306e-08}},{"type":"Feature","id":0,"geometry":{"type":"Polygon","coordinates":[[[48.467493898000043,28.43149508700003],[48.467138238000075,28.431820944000037],[48.466769609000039,28.431506551000041],[48.467125268000075,28.431180694000034],[48.467493898000043,28.43149508700003]]]},"properties":{"OBJECTID":0,"LifeCycleStatus":4,"LifeTime":50,"PumpStationName":"محطة رقم 4","GroundElevation":null,"Description":"محطة لتصريف مياه الامطار ","PumpInstallationType":2,"TotalNumberofPumps":8,"PumpType":7,"TypeofValve1":6,"NoofValve1":8,"DiamofValve1":"0.6m","TypeofValve2":6,"NoofValve2":1,"DiamofValve2":"1.6m","TypeofValve3":5,"NoofValve3":1,"DiamofValve3":"0.6m","DesignCapacity":"2724","NumberofDutyPumps":6,"NumberofStandbyPumps":2,"PumpDischarge":2270,"PumpHead":20,"DimoftheWell":"16*14","WellBedLevel":null,"SuctionPipeDiam":null,"DeliveryPipeDiam":1.6000000000000001,"MainHeaderDiam":null,"PipeMaterial":2,"MechanicalDrawings":null,"NoofScreens":2,"TypeofScreen":"automatic","DataSource":3,"pkSwPumpstationID":0,"FkAmanaID":"","FKGOVERNORATEID":"","FKDISTRICTID":"","FKREGIONID":"","StructureStatus":3,"SituationAssessment":null,"CreationUser":"","DateCreated":-2209161600000,"DateModified":-2209161600000,"LastUser":"","MunicipalityName":"al khafji","ProjectName":null,"ProjectStatus":2,"DesignStatus":1,"ConstructionStatus":1,"ProjectCostSAR":0,"PaidInvo":0,"CompletePercentage":0,"ProjectDurationDay":0,"RemainingDurationDay":0,"SHAPE_Length":0.0019337111968558373,"SHAPE_Area":2.3193736016774254e-07}}]}