{
  "type" : "FeatureCollection",
  "features" : [{"type":"Feature","id":0,"geometry":{"type":"MultiLineString","coordinates":[[[48.440568390786957,28.422483307229218],[48.439206031004659,28.423722961187728],[48.438227378219686,28.424613464353499],[48.437348551004682,28.425412533021071],[48.436066398004684,28.426579095187741],[48.435229763004706,28.427340537021049],[48.433560615171402,28.428858472521068],[48.432749397338064,28.429597035521066],[48.431849131519698,28.430415454072563],[48.430841939004772,28.431332135687736],[48.430431484004778,28.43170490118775],[48.430426464338112,28.431709835354415],[48.429439469838123,28.43260818802106],[48.428947892004793,28.433054993354414],[48.428294032504802,28.433648917187725],[48.428194235085094,28.43371791525059],[48.428065663171495,28.433802833521082],[48.42802151350481,28.433829174354379],[48.427989840504793,28.433856183187761],[48.427962430171483,28.433893310854408],[48.427947957602292,28.433914904613779],[48.427890998671472,28.433983018021088],[48.427841663671479,28.434040454187762],[48.42781459183815,28.43407245135441],[48.427766851838165,28.434127191021037],[48.427763370004811,28.434130550521065],[48.427440768338137,28.434424934021063],[48.427436524338141,28.434420296521079],[48.427758123838139,28.434127854521076],[48.427764113671486,28.434121016521065],[48.427809256338136,28.434067860521054],[48.427836439671466,28.434037307521077],[48.427885615504806,28.433979327854388],[48.42794355433,28.43391109592476],[48.427956536838153,28.433889455854398],[48.427984598004805,28.43385251652105],[48.428017237838141,28.433824711021064],[48.428061816838138,28.433798129187728],[48.428190356004812,28.433712643687727],[48.428289002838127,28.433644555021079],[48.4289426950048,28.433050298187752],[48.429433252171457,28.432604650521082],[48.430421477338108,28.431705358521086],[48.430426681171433,28.431700221687734],[48.430837434171444,28.431327635687733],[48.431844060838102,28.430411420187749],[48.432745121171415,28.429592223854399],[48.433556365171398,28.428854010021062],[48.435224738338043,28.427335330687733],[48.4360616610047,28.426574989354364],[48.436488940671353,28.426185584854373],[48.437344284004681,28.425407918354402],[48.438222638121921,28.424608753887217],[48.439202356171315,28.423717198187713],[48.439794375504647,28.423177636354403],[48.440563974171297,28.422478034354377],[48.44112939800462,28.421963678854372],[48.441134250171309,28.42196815802108],[48.440568395837964,28.422483097354377],[48.440568390786957,28.422483307229218]],[[48.426864269171489,28.434940717187732],[48.441722127389895,28.421424192609948]],[[48.441726705504628,28.421428561354396],[48.426868785671495,28.434944919021053]],[[48.426845963671497,28.434924506354402],[48.441713679337951,28.421418328021076]],[[48.44049352788096,28.422356997582867],[48.439940506004632,28.422861732021079],[48.439249260837975,28.423490726021054],[48.439079207337997,28.423645409187738],[48.437623227504695,28.42497133635441],[48.436645215671355,28.425862540187758],[48.435830227338045,28.42660394902105],[48.435047937504713,28.427315145854411],[48.433541354171389,28.428684909354374],[48.432751449171391,28.429404017354379],[48.431829561338091,28.430242966521064],[48.430955657301972,28.431037871238644],[48.43032448283811,28.431612662687741],[48.430317666171433,28.431617627521053],[48.429412547504796,28.432442504021061],[48.428681064338136,28.433107418021084],[48.428119109171476,28.43361869268773],[48.427998416504821,28.433699795021067],[48.427945619504811,28.433730474187744],[48.427902014004808,28.433764950854361],[48.427833680338168,28.433853028354417],[48.427737503838138,28.433964983687737],[48.427505128004825,28.434176699854376],[48.427078056171474,28.434564363187732],[48.427070488671475,28.434559103854429],[48.427500350338143,28.434167907021067],[48.427728854004805,28.433960103687745],[48.427826241171481,28.433847454521047],[48.42789640417147,28.433757842354417],[48.427940216004821,28.433723610521067],[48.427993092504806,28.43369239252106],[48.4281129885048,28.433611285354395],[48.428673261171454,28.433102516187724],[48.429406161504787,28.432436930854401],[48.430311891171442,28.431611797687754],[48.43031769150479,28.431606863854412],[48.430946741171425,28.431033744521073],[48.431821585171413,28.430237268187732],[48.432742593504749,28.429400309021069],[48.433550912171398,28.428665645687715],[48.435039131338051,28.427310610521058],[48.435824709504693,28.426597022354407],[48.436649993838017,28.425846203354421],[48.437621062004673,28.424964625521078],[48.43907078967635,28.423642267755046],[48.439249916171335,28.423481425854405],[48.439936156337978,28.422856527021079],[48.44048805300465,28.422351527187725]],[[48.427070488671475,28.434559103854429],[48.426743803805124,28.434857966606494],[48.426858936137151,28.434954430917749],[48.426864269171489,28.434940717187732],[48.426845963671497,28.434924506354402],[48.426766230003608,28.434857436021272],[48.427078056171474,28.434564363187732]],[[48.44048805300465,28.422351527187725],[48.441600879437146,28.421308866538908],[48.441722127389895,28.421424192609948]]]},"properties":{"FID":0,"FID_":0,"Entity":"LWPolyline","Layer":"0","Color":-2,"Linetype":"Continuous","Elevation":-9.2051999999999996,"LineWt":0,"RefName":" "}}]
}